     2.100          NAVIGATION                              RINEX VERSION / TYPE
fic2rin                                 02/02/2009 01:10:31 PGM / RUN BY / DATE
                                                            END OF HEADER
30 09  2  1  6  0  0.0  .123463105410D-03  .250111042988D-11  .000000000000D+00
     .122000000000D+03 -.321250000000D+02  .509806949791D-08  .124152700455D+01
    -.186450779438D-05  .111602479592D-01  .529550015926D-05  .515364216232D+04
     .216000000000D+05 -.238418579102D-06 -.524847595129D+00 -.130385160446D-06
     .951108734205D+00  .273718750000D+03  .141407486386D+01 -.851464038323D-08
    -.264296723305D-10  .100000000000D+01  .151700000000D+04  .000000000000D+00
     .240000000000D+01  .000000000000D+00 -.791624188423D-08  .122000000000D+03
     .144060000000D+05  .400000000000D+01
31 09  2  1  6  0  0.0 -.498942099512D-04 -.147792889038D-11  .000000000000D+00
     .900000000000D+02  .167812500000D+02  .436089593453D-08 -.255303257107D+01
     .979751348495D-06  .716973573435D-02  .776350498199D-05  .515363551712D+04
     .216000000000D+05  .130385160446D-07 -.153321503366D+01  .819563865662D-07
     .971004405454D+00  .236031250000D+03 -.119685930844D+01 -.788961434839D-08
     .345728686702D-09  .100000000000D+01  .151700000000D+04  .000000000000D+00
     .485000000000D+01  .000000000000D+00 -.130385160446D-07  .900000000000D+02
     .144060000000D+05  .400000000000D+01
32 09  2  1  6  0  0.0  .299171078950D-03 -.306954461848D-11  .000000000000D+00
     .390000000000D+02 -.565625000000D+01  .460590614019D-08 -.169807715294D+01
     .502914190292D-07  .135787380859D-01  .458396971226D-05  .515364433098D+04
     .216000000000D+05 -.182539224625D-06  .274358102439D+01  .255182385445D-06
     .965754694668D+00  .295812500000D+03 -.120466554172D+01 -.829427406124D-08
    -.138934358602D-09  .100000000000D+01  .151700000000D+04  .000000000000D+00
     .240000000000D+01  .000000000000D+00 -.325962901115D-08  .390000000000D+02
     .144060000000D+05  .400000000000D+01
16 09  2  1  5 59 44.0  .779088586569D-04 -.272848410532D-11  .000000000000D+00
     .300000000000D+01 -.429687500000D+02  .466197990446D-08  .147636692363D+01
    -.203587114811D-05  .502629706170D-02  .525824725628D-05  .515375232124D+04
     .215840000000D+05  .726431608200D-07 -.462200210117D+00  .186264514923D-07
     .967698102339D+00  .277656250000D+03 -.388763440003D+00 -.818855537191D-08
    -.195722438339D-09  .100000000000D+01  .151700000000D+04  .000000000000D+00
     .240000000000D+01  .000000000000D+00 -.977888703346D-08  .300000000000D+01
     .158760000000D+05  .400000000000D+01
27 09  2  1  5 59 44.0  .210450962186D-04  .318323145621D-11  .000000000000D+00
     .190000000000D+02 -.750000000000D+00  .440768359771D-08  .114219271940D+01
    -.284984707832D-06  .210592043586D-01  .907294452190D-05  .515518509483D+04
     .215840000000D+05 -.333413481712D-06 -.158945255972D+01 -.268220901489D-06
     .972592348901D+00  .220312500000D+03 -.165370740058D+01 -.822569977627D-08
     .348228790841D-09  .100000000000D+01  .151700000000D+04  .000000000000D+00
     .240000000000D+01  .000000000000D+00 -.465661287308D-08  .190000000000D+02
     .159360000000D+05  .400000000000D+01
 3 09  2  1  5 59 44.0  .346886459738D-03  .522959453519D-11  .000000000000D+00
     .000000000000D+00 -.285312500000D+02  .523878964519D-08 -.102272062227D+01
    -.143051147461D-05  .116229143459D-01  .973604619503D-05  .515373441887D+04
     .215840000000D+05  .176951289177D-06  .452617278926D+00  .275671482086D-06
     .926432196934D+00  .172187500000D+03  .890677276558D+00 -.840320717017D-08
    -.300369654459D-09  .100000000000D+01  .151700000000D+04  .000000000000D+00
     .240000000000D+01  .000000000000D+00 -.419095158577D-08  .000000000000D+00
     .177060000000D+05  .400000000000D+01
25 09  2  1  5 59 44.0  .212955754250D-03  .255795384874D-10  .000000000000D+00
     .400000000000D+01  .165625000000D+02  .432732310752D-08  .202018897001D+01
     .817701220512D-06  .117866679793D-01  .833906233311D-05  .515367578316D+04
     .215840000000D+05  .182539224625D-06 -.162530728622D+01  .279396772385D-07
     .967943547808D+00  .219562500000D+03 -.123093625008D+01 -.783854079240D-08
     .300726812193D-09  .100000000000D+01  .151700000000D+04  .000000000000D+00
     .240000000000D+01  .000000000000D+00 -.745058059692D-08  .400000000000D+01
     .177660000000D+05  .400000000000D+01
 7 09  2  1  5 59 44.0  .230045989156D-04 -.227373675443D-12  .000000000000D+00
     .200000000000D+02  .177187500000D+02  .449983029314D-08 -.247983481398D+01
     .933185219765D-06  .230393046513D-02  .824779272079D-05  .515368023300D+04
     .215840000000D+05 -.428408384323D-07 -.153054310302D+01  .298023223877D-07
     .965593159254D+00  .224937500000D+03  .291966155144D+01 -.805962142987D-08
     .403588239642D-09  .100000000000D+01  .151700000000D+04  .000000000000D+00
     .240000000000D+01  .000000000000D+00 -.107102096081D-07  .200000000000D+02
     .192360000000D+05  .400000000000D+01
18 09  2  1  5 59 44.0 -.876020640135D-04  .363797880709D-11  .000000000000D+00
     .120000000000D+02  .681250000000D+01  .518843040467D-08  .160085695265D+01
     .344589352608D-06  .991525279824D-02  .384822487831D-05  .515375205421D+04
     .215840000000D+05 -.201165676117D-06  .269025529778D+01  .147148966789D-06
     .944133685632D+00  .295187500000D+03 -.243771336043D+01 -.864786021809D-08
    -.136791412197D-09  .100000000000D+01  .151700000000D+04  .000000000000D+00
     .240000000000D+01  .000000000000D+00 -.107102096081D-07  .120000000000D+02
     .201660000000D+05  .400000000000D+01
 3 09  2  1  7 59 44.0  .346924643964D-03  .522959453519D-11  .000000000000D+00
     .300000000000D+01 -.339062500000D+02  .536308053669D-08  .274504040367D-01
    -.162050127983D-05  .116225207457D-01  .958517193794D-05  .515373397827D+04
     .287840000000D+05 -.409781932831D-07  .452555678372D+00  .186264514923D-06
     .926429392520D+00  .175375000000D+03  .890655486393D+00 -.858035740633D-08
    -.283583240952D-09  .100000000000D+01  .151700000000D+04  .000000000000D+00
     .240000000000D+01  .000000000000D+00 -.419095158577D-08  .300000000000D+01
     .216060000000D+05  .400000000000D+01
 7 09  2  1  7 59 44.0  .230027362704D-04 -.227373675443D-12  .000000000000D+00
     .210000000000D+02  .164062500000D+02  .448875840338D-08 -.142987570452D+01
     .748783349991D-06  .230382010341D-02  .794418156147D-05  .515367943382D+04
     .287840000000D+05 -.391155481339D-07 -.153060124670D+01  .000000000000D+00
     .965596064609D+00  .230062500000D+03  .291987908297D+01 -.807212195057D-08
     .406802659249D-09  .100000000000D+01  .151700000000D+04  .000000000000D+00
     .240000000000D+01  .000000000000D+00 -.107102096081D-07  .210000000000D+02
     .216060000000D+05  .400000000000D+01
16 09  2  1  7 59 44.0  .778893008828D-04 -.272848410532D-11  .000000000000D+00
     .400000000000D+01 -.404375000000D+02  .471555356459D-08  .252648201087D+01
    -.192411243916D-05  .502643967047D-02  .555627048016D-05  .515375236893D+04
     .287840000000D+05 -.130385160446D-07 -.462259799159D+00  .165775418282D-06
     .967697123647D+00  .277187500000D+03 -.388744271388D+00 -.816319717279D-08
    -.646455498895D-10  .100000000000D+01  .151700000000D+04  .000000000000D+00
     .240000000000D+01  .000000000000D+00 -.977888703346D-08  .400000000000D+01
     .216060000000D+05  .400000000000D+01
18 09  2  1  7 59 44.0 -.875759869814D-04  .363797880709D-11  .000000000000D+00
     .130000000000D+02  .117812500000D+02  .501985195413D-08  .265103136123D+01
     .609084963799D-06  .991510250606D-02  .383146107197D-05  .515375161552D+04
     .287840000000D+05 -.763684511185D-07  .269019345731D+01 -.121071934700D-06
     .944134232763D+00  .296718750000D+03 -.243774966421D+01 -.837606318237D-08
    -.503592405216D-10  .100000000000D+01  .151700000000D+04  .000000000000D+00
     .240000000000D+01  .000000000000D+00 -.107102096081D-07  .130000000000D+02
     .216060000000D+05  .400000000000D+01
25 09  2  1  7 59 44.0  .213140156120D-03  .255795384874D-10  .000000000000D+00
     .500000000000D+01  .186250000000D+02  .433375194674D-08  .307036539741D+01
     .955536961555D-06  .117870767135D-01  .816024839878D-05  .515367518234D+04
     .287840000000D+05  .130385160446D-06 -.162536379728D+01  .134110450745D-06
     .967945740722D+00  .223468750000D+03 -.123093443752D+01 -.781961143249D-08
     .342514267094D-09  .100000000000D+01  .151700000000D+04  .000000000000D+00
     .240000000000D+01  .000000000000D+00 -.745058059692D-08  .500000000000D+01
     .216060000000D+05  .400000000000D+01
27 09  2  1  7 59 44.0  .210679136217D-04  .318323145621D-11  .000000000000D+00
     .300000000000D+02  .512500000000D+01  .423124767702D-08  .219143754009D+01
     .353902578354D-07  .210588118061D-01  .829994678497D-05  .515518563843D+04
     .287840000000D+05  .268220901489D-06 -.158950938531D+01 -.173225998878D-06
     .972597611017D+00  .221625000000D+03 -.165369593569D+01 -.762210320548D-08
     .330370904131D-09  .100000000000D+01  .151700000000D+04  .000000000000D+00
     .240000000000D+01  .000000000000D+00 -.465661287308D-08  .300000000000D+02
     .216060000000D+05  .400000000000D+01
 2 09  2  1  8  0  0.0  .159071292728D-03 -.159161572810D-11  .000000000000D+00
     .600000000000D+02  .851562500000D+02  .506092509356D-08  .388745296893D+00
     .429525971413D-05  .895152497105D-02  .832974910736D-05  .515361072731D+04
     .288000000000D+05  .169500708580D-06  .159907233450D+01 -.782310962677D-07
     .941524642921D+00  .210156250000D+03  .271077455834D+01 -.847321008607D-08
     .149649090628D-09  .100000000000D+01  .151700000000D+04  .000000000000D+00
     .240000000000D+01  .000000000000D+00 -.172294676304D-07  .600000000000D+02
     .216060000000D+05  .400000000000D+01
